ONEWEB-0520             
1 54138U 22138AB  25145.17528884  .00000011  00000+0 -60703-5 0  9990
2 54138  87.9236  22.0856 0001511  88.6818 271.4488 13.19723106125643
ONEWEB-0521             
1 54139U 22138AC  25145.36010659  .00000111  00000+0  24420-3 0  9992
2 54139  87.9234  22.0363 0001937  74.2789 285.8558 13.19725001125615
ONEWEB-0522             
1 54140U 22138AD  25145.64285113  .00000005  00000+0 -20391-4 0  9991
2 54140  87.9234  21.9816 0001776  85.0055 275.1280 13.19725280125696
ONEWEB-0523             
1 54141U 22138AE  25145.30722484  .00000064  00000+0  12552-3 0  9995
2 54141  87.9269 351.6884 0002664  81.0941 279.0494 13.20770260128109
ONEWEB-0524             
1 54142U 22138AF  25145.52344580  .00000109  00000+0  23735-3 0  9992
2 54142  87.9270 351.6473 0002570 101.9043 258.2379 13.20770088128139
ONEWEB-0525             
1 54143U 22138AG  25145.35853541  .00000097  00000+0  21004-3 0  9999
2 54143  87.9238  22.0562 0001529  87.2029 272.9279 13.19725725125679
ONEWEB-0526             
1 54144U 22138AH  25145.39170096 -.00000004  00000+0 -43286-4 0  9998
2 54144  87.9234  22.0389 0001773  84.5792 275.5543 13.19723956125656
ONEWEB-0529             
1 54145U 22138AJ  25145.39486293 -.00000017  00000+0 -75310-4 0  9995
2 54145  87.9242  22.0785 0001630  87.3292 272.8027 13.19724200125676
